[{"OBJECT_NAME":"O3B FM20","OBJECT_ID":"2019-020A","EPOCH":"2026-03-28T10:56:55.089024","MEAN_MOTION":5.00115476,"ECCENTRICITY":0.0002701,"INCLINATION":0.0528,"RA_OF_ASC_NODE":0.7315,"ARG_OF_PERICENTER":354.7531,"MEAN_ANOMALY":4.5083,"EPHEMERIS_TYPE":0,"CLASSIFICATION_TYPE":"U","NORAD_CAT_ID":44112,"ELEMENT_SET_NO":999,"REV_AT_EPOCH":12752,"BSTAR":0,"MEAN_MOTION_DOT":-2.9e-7,"MEAN_MOTION_DDOT":0},{"OBJECT_NAME":"O3B FM19","OBJECT_ID":"2019-020B","EPOCH":"2026-03-25T16:26:09.362976","MEAN_MOTION":5.00116069,"ECCENTRICITY":0.00040966,"INCLINATION":0.0581,"RA_OF_ASC_NODE":353.0453,"ARG_OF_PERICENTER":6.4054,"MEAN_ANOMALY":0.5453,"EPHEMERIS_TYPE":0,"CLASSIFICATION_TYPE":"U","NORAD_CAT_ID":44113,"ELEMENT_SET_NO":999,"REV_AT_EPOCH":12726,"BSTAR":0,"MEAN_MOTION_DOT":-2.4e-7,"MEAN_MOTION_DDOT":0},{"OBJECT_NAME":"O3B FM17","OBJECT_ID":"2019-020C","EPOCH":"2026-03-28T08:43:24.965760","MEAN_MOTION":5.00115394,"ECCENTRICITY":0.0002563,"INCLINATION":0.0364,"RA_OF_ASC_NODE":346.5539,"ARG_OF_PERICENTER":20.5809,"MEAN_ANOMALY":352.8642,"EPHEMERIS_TYPE":0,"CLASSIFICATION_TYPE":"U","NORAD_CAT_ID":44114,"ELEMENT_SET_NO":999,"REV_AT_EPOCH":12748,"BSTAR":0,"MEAN_MOTION_DOT":-2.9e-7,"MEAN_MOTION_DDOT":0},{"OBJECT_NAME":"O3B FM18","OBJECT_ID":"2019-020D","EPOCH":"2026-03-28T12:13:55.754112","MEAN_MOTION":5.0011524,"ECCENTRICITY":0.00027285,"INCLINATION":0.0531,"RA_OF_ASC_NODE":0.9519,"ARG_OF_PERICENTER":5.7104,"MEAN_ANOMALY":353.3366,"EPHEMERIS_TYPE":0,"CLASSIFICATION_TYPE":"U","NORAD_CAT_ID":44115,"ELEMENT_SET_NO":999,"REV_AT_EPOCH":12761,"BSTAR":0,"MEAN_MOTION_DOT":-2.9e-7,"MEAN_MOTION_DDOT":0},{"OBJECT_NAME":"SALSAT","OBJECT_ID":"2020-068K","EPOCH":"2026-03-28T12:41:19.479552","MEAN_MOTION":15.285403,"ECCENTRICITY":0.00086745,"INCLINATION":97.8863,"RA_OF_ASC_NODE":85.7603,"ARG_OF_PERICENTER":217.3238,"MEAN_ANOMALY":142.7398,"EPHEMERIS_TYPE":0,"CLASSIFICATION_TYPE":"U","NORAD_CAT_ID":46495,"ELEMENT_SET_NO":999,"REV_AT_EPOCH":30303,"BSTAR":0.00037480321,"MEAN_MOTION_DOT":0.0001034,"MEAN_MOTION_DDOT":0},{"OBJECT_NAME":"O3B MPOWER F1","OBJECT_ID":"2022-174A","EPOCH":"2026-03-27T17:22:45.435936","MEAN_MOTION":5.00114858,"ECCENTRICITY":0.00055351,"INCLINATION":0.0628,"RA_OF_ASC_NODE":349.5987,"ARG_OF_PERICENTER":34.9077,"MEAN_ANOMALY":220.5631,"EPHEMERIS_TYPE":0,"CLASSIFICATION_TYPE":"U","NORAD_CAT_ID":54755,"ELEMENT_SET_NO":999,"REV_AT_EPOCH":6128,"BSTAR":0,"MEAN_MOTION_DOT":-2.8e-7,"MEAN_MOTION_DDOT":0},{"OBJECT_NAME":"O3B MPOWER F2","OBJECT_ID":"2022-174B","EPOCH":"2026-03-28T08:30:10.208448","MEAN_MOTION":5.00115489,"ECCENTRICITY":0.0005942,"INCLINATION":0.0601,"RA_OF_ASC_NODE":346.6793,"ARG_OF_PERICENTER":19.1905,"MEAN_ANOMALY":354.1325,"EPHEMERIS_TYPE":0,"CLASSIFICATION_TYPE":"U","NORAD_CAT_ID":54756,"ELEMENT_SET_NO":999,"REV_AT_EPOCH":6140,"BSTAR":0,"MEAN_MOTION_DOT":-2.9e-7,"MEAN_MOTION_DDOT":0},{"OBJECT_NAME":"O3B MPOWER F4","OBJECT_ID":"2023-059A","EPOCH":"2026-03-27T19:39:18.085248","MEAN_MOTION":5.00116069,"ECCENTRICITY":0.0006938,"INCLINATION":0.0636,"RA_OF_ASC_NODE":5.1501,"ARG_OF_PERICENTER":15.6924,"MEAN_ANOMALY":339.1813,"EPHEMERIS_TYPE":0,"CLASSIFICATION_TYPE":"U","NORAD_CAT_ID":56367,"ELEMENT_SET_NO":999,"REV_AT_EPOCH":5453,"BSTAR":0,"MEAN_MOTION_DOT":-2.8e-7,"MEAN_MOTION_DDOT":0},{"OBJECT_NAME":"O3B MPOWER F3","OBJECT_ID":"2023-059B","EPOCH":"2026-03-28T06:02:56.942880","MEAN_MOTION":5.00116702,"ECCENTRICITY":0.0006572,"INCLINATION":0.0649,"RA_OF_ASC_NODE":5.1389,"ARG_OF_PERICENTER":5.5978,"MEAN_ANOMALY":349.2727,"EPHEMERIS_TYPE":0,"CLASSIFICATION_TYPE":"U","NORAD_CAT_ID":56368,"ELEMENT_SET_NO":999,"REV_AT_EPOCH":5067,"BSTAR":0,"MEAN_MOTION_DOT":-2.9e-7,"MEAN_MOTION_DDOT":0}]
