O3B FM20                
1 44112U 19020A   26087.45619316 -.00000029  00000+0  00000+0 0  9992
2 44112   0.0528   0.7315 0002701 354.7531   4.5083  5.00115476127529
O3B FM19                
1 44113U 19020B   26084.68483059 -.00000024  00000+0  00000+0 0  9993
2 44113   0.0581 353.0453 0004096   6.4054   0.5453  5.00116069127263
O3B FM17                
1 44114U 19020C   26087.36348340 -.00000029  00000+0  00000+0 0  9990
2 44114   0.0364 346.5539 0002563  20.5809 352.8642  5.00115394127484
O3B FM18                
1 44115U 19020D   26087.50967308 -.00000029  00000+0  00000+0 0  9998
2 44115   0.0531   0.9519 0002728   5.7104 353.3366  5.00115240127610
SALSAT                  
1 46495U 20068K   26087.52869768  .00010340  00000+0  37480-3 0  9990
2 46495  97.8863  85.7603 0008674 217.3238 142.7398 15.28540300303032
O3B MPOWER F1           
1 54755U 22174A   26086.72413699 -.00000028  00000+0  00000+0 0  9994
2 54755   0.0628 349.5987 0005535  34.9077 220.5631  5.00114858 61285
O3B MPOWER F2           
1 54756U 22174B   26087.35428482 -.00000029  00000+0  00000+0 0  9992
2 54756   0.0601 346.6793 0005942  19.1905 354.1325  5.00115489 61406
O3B MPOWER F4           
1 56367U 23059A   26086.81895932 -.00000028  00000+0  00000+0 0  9992
2 56367   0.0636   5.1501 0006938  15.6924 339.1813  5.00116069 54532
O3B MPOWER F3           
1 56368U 23059B   26087.25204795 -.00000029  00000+0  00000+0 0  9994
2 56368   0.0649   5.1389 0006572   5.5978 349.2727  5.00116702 50673
